NORAD_CAT_ID,OBJECT_NAME,OBJECT_TYPE,EPOCH,MEAN_MOTION,ECCENTRICITY,INCLINATION,RA_OF_ASC_NODE,ARG_OF_PERICENTER,MEAN_ANOMALY,BSTAR,MEAN_MOTION_DOT,MEAN_MOTION_DDOT,TLE_LINE0,TLE_LINE1,TLE_LINE2,SEMIMAJOR_AXIS,PERIOD,APOGEE,PERIGEE,DECAYED
53244.0,STARLINK-4125,PAYLOAD,2023-03-08 18:12:05,15.08847055,0.0001128,53.2158,88.4334,93.701,266.4111,0.00054389,8.38e-05,0.0,0 STARLINK-4125,1 53244U 22086C   23067.75840205  .00008380  00000-0  54389-3 0  9996,2 53244  53.2158  88.4334 0001128  93.7010 266.4111 15.08847055 35648,6917.859,95.437,540.504,538.943,0.0
53244.0,STARLINK-4125,PAYLOAD,2023-03-09 05:19:47,15.08843626,0.0001267,53.2168,86.3534,99.0826,261.031,0.00022541,3.302e-05,0.0,0 STARLINK-4125,1 53244U 22086C   23068.22208326  .00003302  00000-0  22541-3 0  9995,2 53244  53.2168  86.3534 0001267  99.0826 261.0310 15.08843626 35211,6917.869,95.437,540.611,538.858,0.0
53244.0,STARLINK-4125,PAYLOAD,2023-03-09 18:02:52,15.08847355,0.0001417,53.2164,83.9724,99.2964,260.8188,0.00021102,3.073e-05,0.0,0 STARLINK-4125,1 53244U 22086C   23068.75200004  .00003073  00000-0  21102-3 0  9995,2 53244  53.2164  83.9724 0001417  99.2964 260.8188 15.08847355 35799,6917.858,95.437,540.703,538.743,0.0
53244.0,STARLINK-4125,PAYLOAD,2023-03-10 09:56:43,15.08865502,0.00012,53.2165,80.9986,117.327,242.7844,0.00035205,5.323e-05,0.0,0 STARLINK-4125,1 53244U 22086C   23069.41438769  .00005323  00000-0  35205-3 0  9999,2 53244  53.2165  80.9986 0001200 117.3270 242.7844 15.08865502 35397,6917.802,95.436,540.498,538.837,0.0
53244.0,STARLINK-4125,PAYLOAD,2023-03-10 17:53:39,15.08845246,0.0001676,53.2179,79.5134,82.4146,277.7037,4.9045e-05,4.93e-06,0.0,0 STARLINK-4125,1 53244U 22086C   23069.74559839  .00000493  00000-0  49045-4 0  9998,2 53244  53.2179  79.5134 0001676  82.4146 277.7037 15.08845246 35443,6917.864,95.437,540.889,538.57,0.0
53244.0,STARLINK-4125,PAYLOAD,2023-03-11 09:47:30,15.0885221,0.0001447,53.2171,76.5374,96.2843,263.8314,0.00019952,2.89e-05,0.0,0 STARLINK-4125,1 53244U 22086C   23070.40799308  .00002890  00000-0  19952-3 0  9996,2 53244  53.2171  76.5374 0001447  96.2843 263.8314 15.08852210 36041,6917.843,95.437,540.709,538.707,0.0
53244.0,STARLINK-4125,PAYLOAD,2023-03-12 00:06:00,15.08828162,0.0001544,53.2194,73.8628,89.2902,270.8267,-0.00012584,-2.29e-05,0.0,0 STARLINK-4125,1 53244U 22086C   23071.00416890 -.00002290  00000-0 -12584-3 0  9995,2 53244  53.2194  73.8628 0001544  89.2902 270.8267 15.08828162 35632,6917.917,95.438,540.85,538.713,0.0
53244.0,STARLINK-4125,PAYLOAD,2023-03-12 09:38:18,15.08835702,0.0001529,53.217,72.0787,93.7881,266.3286,-0.00012837,-2.33e-05,0.0,0 STARLINK-4125,1 53244U 22086C   23071.40160680 -.00002330  00000-0 -12837-3 0  9998,2 53244  53.2170  72.0787 0001529  93.7881 266.3286 15.08835702 35697,6917.894,95.438,540.816,538.701,0.0
53244.0,STARLINK-4125,PAYLOAD,2023-03-13 09:29:05,15.08849979,0.0001429,53.2171,67.6157,96.5761,263.5393,0.00039833,6.059e-05,0.0,0 STARLINK-4125,1 53244U 22086C   23072.39520446  .00006059  00000-0  39833-3 0  9992,2 53244  53.2171  67.6157 0001429  96.5761 263.5393 15.08849979 35842,6917.85,95.437,540.703,538.726,0.0
53244.0,STARLINK-4125,PAYLOAD,2023-03-14 04:33:43,15.08839264,0.0001553,53.2165,64.0462,113.7865,246.329,0.00014404,2.005e-05,0.0,0 STARLINK-4125,1 53244U 22086C   23073.19008948  .00002005  00000-0  14404-3 0  9993,2 53244  53.2165  64.0462 0001553 113.7865 246.3290 15.08839264 35964,6917.883,95.438,540.822,538.673,0.0
53244.0,STARLINK-4125,PAYLOAD,2023-03-14 09:19:52,15.08845056,0.0001319,53.2179,63.1564,102.964,257.15,0.00022031,3.221e-05,0.0,0 STARLINK-4125,1 53244U 22086C   23073.38880782  .00003221  00000-0  22031-3 0  9994,2 53244  53.2179  63.1564 0001319 102.9640 257.1500 15.08845056 36492,6917.865,95.437,540.642,538.817,0.0
53244.0,STARLINK-4125,PAYLOAD,2023-03-14 15:41:25,15.08845803,0.0001293,53.2169,61.9681,91.632,268.482,0.00023991,3.533e-05,0.0,0 STARLINK-4125,1 53244U 22086C   23073.65376841  .00003533  00000-0  23991-3 0  9992,2 53244  53.2169  61.9681 0001293  91.6320 268.4820 15.08845803 36532,6917.863,95.437,540.622,538.833,0.0
53244.0,STARLINK-4125,PAYLOAD,2023-03-15 09:10:39,15.08860957,0.0001512,53.2198,58.6961,93.2635,266.853,0.00086428,0.00013502,0.0,0 STARLINK-4125,1 53244U 22086C   23074.38240313  .00013502  00000-0  86428-3 0  9998,2 53244  53.2198  58.6961 0001512  93.2635 266.8530 15.08860957 36143,6917.816,95.436,540.727,538.635,0.0
53244.0,STARLINK-4125,PAYLOAD,2023-03-16 05:50:40,15.08851147,9.7e-05,53.2172,54.8326,103.2713,256.8387,0.00026281,3.899e-05,0.0,0 STARLINK-4125,1 53244U 22086C   23075.24352156  .00003899  00000-0  26281-3 0  9992,2 53244  53.2172  54.8326 0000970 103.2713 256.8387 15.08851147 36278,6917.846,95.437,540.382,539.04,0.0
53244.0,STARLINK-4125,PAYLOAD,2023-03-16 07:26:03,15.0885632,0.000103,53.2178,54.5351,99.2545,260.8564,0.00044853,6.861e-05,0.0,0 STARLINK-4125,1 53244U 22086C   23075.30976082  .00006861  00000-0  44853-3 0  9996,2 53244  53.2178  54.5351 0001030  99.2545 260.8564 15.08856320 36780,6917.831,95.437,540.408,538.983,0.0
53244.0,STARLINK-4125,PAYLOAD,2023-03-16 21:44:32,15.08840553,0.0001864,53.2179,51.8585,81.0061,279.1142,0.0001814,2.6e-05,0.0,0 STARLINK-4125,1 53244U 22086C   23075.90592593  .00002600  00000-0  18140-3 0  9990,2 53244  53.2179  51.8585 0001864  81.0061 279.1142 15.08840553 36873,6917.879,95.438,541.033,538.454,0.0
53244.0,STARLINK-4125,PAYLOAD,2023-03-16 23:19:55,15.08829818,9.93e-05,53.2185,51.5611,88.8301,271.2805,-8.2075e-05,-1.593e-05,0.0,0 STARLINK-4125,1 53244U 22086C   23075.97216682 -.00001593  00000-0 -82075-4 0  9990,2 53244  53.2185  51.5611 0000993  88.8301 271.2805 15.08829818 36387,6917.912,95.438,540.463,539.09,0.0
53244.0,STARLINK-4125,PAYLOAD,2023-03-17 10:27:37,15.08844909,9.74e-05,53.2177,49.4788,80.2415,279.8687,0.0007964,0.00012411,0.0,0 STARLINK-4125,1 53244U 22086C   23076.43584825  .00012411  00000-0  79640-3 0  9991,2 53244  53.2177  49.4788 0000974  80.2415 279.8687 15.08844909 36458,6917.865,95.437,540.404,539.057,0.0
53244.0,STARLINK-4125,PAYLOAD,2023-03-18 10:18:24,15.08860743,9.82e-05,53.2171,45.0172,91.9116,268.1989,0.00090111,0.0001409,0.0,0 STARLINK-4125,1 53244U 22086C   23077.42944494  .00014090  00000-0  90111-3 0  9994,2 53244  53.2171  45.0172 0000982  91.9116 268.1989 15.08860743 36604,6917.817,95.436,540.361,539.003,0.0
53244.0,STARLINK-4125,PAYLOAD,2023-03-18 21:26:06,15.08835871,7.95e-05,53.2179,42.9366,84.6132,275.4951,4.8606e-05,4.86e-06,0.0,0 STARLINK-4125,1 53244U 22086C   23077.89312950  .00000486  00000-0  48606-4 0  9998,2 53244  53.2179  42.9366 0000795  84.6132 275.4951 15.08835871 36673,6917.893,95.438,540.308,539.208,0.0
53244.0,STARLINK-4125,PAYLOAD,2023-03-19 06:58:25,15.08854923,0.0001186,53.2176,41.1518,82.677,277.4357,0.0007916,0.00012338,0.0,0 STARLINK-4125,1 53244U 22086C   23078.29056752  .00012338  00000-0  79160-3 0  9995,2 53244  53.2176  41.1518 0001186  82.6770 277.4357 15.08854923 36739,6917.835,95.437,540.52,538.879,0.0
53244.0,STARLINK-4125,PAYLOAD,2023-03-19 14:55:20,15.08844823,8.77e-05,53.2182,39.6644,104.8214,255.2876,0.00032965,4.963e-05,0.0,0 STARLINK-4125,1 53244U 22086C   23078.62176768  .00004963  00000-0  32965-3 0  9999,2 53244  53.2182  39.6644 0000877 104.8214 255.2876 15.08844823 36787,6917.866,95.437,540.337,539.124,0.0
53244.0,STARLINK-4125,PAYLOAD,2023-03-20 03:38:24,15.08887446,0.0001038,53.2177,37.285,112.6777,247.4325,0.0017804,0.00028198,0.0,0 STARLINK-4125,1 53244U 22086C   23079.15167761  .00028198  00000-0  17804-2 0  9991,2 53244  53.2177  37.2850 0001038 112.6777 247.4325 15.08887446 36864,6917.735,95.435,540.318,538.882,0.0
53244.0,STARLINK-4125,PAYLOAD,2023-03-20 06:49:10,15.08897948,0.0001066,53.2179,36.6908,111.3645,248.7461,0.002599,0.00041384,0.0,0 STARLINK-4125,1 53244U 22086C   23079.28415438  .00041384  00000-0  25990-2 0  9999,2 53244  53.2179  36.6908 0001066 111.3645 248.7461 15.08897948 37385,6917.703,95.434,540.306,538.831,0.0
53244.0,STARLINK-4125,PAYLOAD,2023-03-21 06:39:59,15.0883297,8.76e-05,53.2191,32.232,79.6795,280.4296,0.0011425,0.00017938,0.0,0 STARLINK-4125,1 53244U 22086C   23080.27776893  .00017938  00000-0  11425-2 0  9991,2 53244  53.2191  32.2320 0000876  79.6795 280.4296 15.08832970 37034,6917.902,95.438,540.373,539.161,0.0
53244.0,STARLINK-4125,PAYLOAD,2023-03-21 08:15:22,15.08842099,8.57e-05,53.2189,31.9342,97.2612,262.8478,0.00065501,0.00010153,0.0,0 STARLINK-4125,1 53244U 22086C   23080.34400645  .00010153  00000-0  65501-3 0  9995,2 53244  53.2189  31.9342 0000857  97.2612 262.8478 15.08842099 37549,6917.874,95.437,540.332,539.146,0.0
53244.0,STARLINK-4125,PAYLOAD,2023-03-22 04:55:23,15.08849019,0.0001109,53.2194,28.0707,83.6696,276.4422,0.0018932,0.00029978,0.0,0 STARLINK-4125,1 53244U 22086C   23081.20513821  .00029978  00000-0  18932-2 0  9992,2 53244  53.2194  28.0707 0001109  83.6696 276.4422 15.08849019 37177,6917.853,95.437,540.485,538.951,0.0
53244.0,STARLINK-4125,PAYLOAD,2023-03-22 06:30:47,15.08855112,0.0001091,53.2194,27.7722,79.9101,280.2015,0.0019522,0.00030931,0.0,0 STARLINK-4125,1 53244U 22086C   23081.27137736  .00030931  00000-0  19522-2 0  9993,2 53244  53.2194  27.7722 0001091  79.9101 280.2015 15.08855112 37687,6917.834,95.437,540.454,538.944,0.0
53244.0,STARLINK-4125,PAYLOAD,2023-03-23 03:10:47,15.08863425,0.0001156,53.2187,23.9087,103.4608,256.6513,0.0010559,0.00016567,0.0,0 STARLINK-4125,1 53244U 22086C   23082.13249075  .00016567  00000-0  10559-2 0  9999,2 53244  53.2187  23.9087 0001156 103.4608 256.6513 15.08863425 37314,6917.809,95.436,540.473,538.874,0.0
53244.0,STARLINK-4125,PAYLOAD,2023-03-23 06:21:33,15.08876593,0.0001108,53.2187,23.3121,100.0476,260.0641,0.0016025,0.00025333,0.0,0 STARLINK-4125,1 53244U 22086C   23082.26496774  .00025333  00000-0  16025-2 0  9998,2 53244  53.2187  23.3121 0001108 100.0476 260.0641 15.08876593 37838,6917.769,95.435,540.4,538.867,0.0
